OBJECT_NAME,OBJECT_ID,EPOCH,MEAN_MOTION,ECCENTRICITY,INCLINATION,RA_OF_ASC_NODE,ARG_OF_PERICENTER,MEAN_ANOMALY,EPHEMERIS_TYPE,CLASSIFICATION_TYPE,NORAD_CAT_ID,ELEMENT_SET_NO,REV_AT_EPOCH,BSTAR,MEAN_MOTION_DOT,MEAN_MOTION_DDOT,GROUP
ONEWEB-0035,2020-008N,2026-05-03T04:22:57.544608,13.10882641,0.00018249,87.885,45.2305,75.3701,284.7629,0,U,45143,999,30204,-0.00087252724,-2.94e-06,0.0,Active Satellites
ONEWEB-0036,2020-008P,2026-05-03T05:00:04.849344,13.09823273,0.00019523,87.8875,45.2177,85.5082,274.6268,0,U,45144,999,30247,-0.00065542754,-2.14e-06,0.0,Active Satellites
ONEWEB-0038,2020-008Q,2026-05-03T05:31:18.161184,13.11418589,0.00033208,87.894,30.0105,59.8625,300.2832,0,U,45145,999,30443,-0.0014495334,-5.01e-06,0.0,Active Satellites
ONEWEB-0039,2020-008R,2026-05-03T05:37:25.151232,13.10372127,0.00022506,87.8857,45.2122,87.2097,272.9288,0,U,45146,999,30227,0.0019720256,7.01e-06,0.0,Active Satellites
ONEWEB-0040,2020-008S,2026-05-03T05:27:51.466464,13.10374215,0.00019389,87.8854,45.2258,76.6994,283.435,0,U,45147,999,30197,0.0018761197,6.68e-06,0.0,Active Satellites
ONEWEB-0043,2020-008U,2026-05-03T05:30:14.574240,13.10374043,0.0002333,87.8857,45.2115,89.1584,270.9811,0,U,45149,999,30229,0.0022275815,7.9e-06,0.0,Active Satellites
ONEWEB-0044,2020-008V,2026-05-03T04:20:54.823776,13.10371207,0.00020607,87.8859,45.2191,81.075,279.061,0,U,45150,999,30258,-0.00074339193,-2.47e-06,0.0,Active Satellites
ONEWEB-0045,2020-008W,2026-05-03T05:23:46.624416,13.11417869,0.00019126,87.8933,29.9961,79.5162,280.6181,0,U,45151,999,30451,-0.0012349839,-4.25e-06,0.0,Active Satellites
ONEWEB-0047,2020-008X,2026-05-03T06:01:18.433056,13.10370527,0.00019238,87.8857,45.2054,73.8558,286.2781,0,U,45152,999,30231,-1.9204677e-05,6e-08,0.0,Active Satellites
ONEWEB-0048,2020-008Y,2026-05-03T05:54:08.491104,13.10369872,0.0001898,87.885,45.2305,76.5141,283.6198,0,U,45153,999,30192,0.00096102015,3.48e-06,0.0,Active Satellites
ONEWEB-0049,2020-008Z,2026-05-03T05:58:43.514400,13.10370219,0.0001715,87.8853,45.2184,92.0735,268.0589,0,U,45154,999,30214,0.00045672403,1.72e-06,0.0,Active Satellites
ONEWEB-0051,2020-008AA,2026-05-03T05:21:20.151360,13.11414604,0.00018529,87.8924,30.0073,79.9766,280.1571,0,U,45155,999,30519,-0.0012949725,-4.46e-06,0.0,Active Satellites
ONEWEB-0052,2020-008AB,2026-05-03T04:37:53.159232,13.10426886,0.00016143,87.8858,45.2143,92.0763,268.0549,0,U,45156,999,30204,-0.024529943,-8.549e-05,0.0,Active Satellites
ONEWEB-0053,2020-008AC,2026-05-03T05:25:28.162560,13.10375249,0.00021521,87.8856,45.2314,91.3349,268.8025,0,U,45157,999,30202,0.0019355024,6.88e-06,0.0,Active Satellites
ONEWEB-0054,2020-008AD,2026-05-03T04:25:40.824192,13.10370744,0.00018182,87.8861,45.2187,80.0057,280.1276,0,U,45158,999,30213,-0.0011366728,-3.84e-06,0.0,Active Satellites
ONEWEB-0056,2020-008AE,2026-05-03T05:44:12.556608,13.10840057,0.00016108,87.8858,45.2055,78.4341,281.6968,0,U,45159,999,30229,0.0016006302,5.75e-06,0.0,Active Satellites
ONEWEB-0057,2020-008AF,2026-05-03T05:59:07.766880,13.10370209,0.00021561,87.8855,45.2138,92.275,267.8625,0,U,45160,999,30246,0.0001752026,7.4e-07,0.0,Active Satellites
ONEWEB-0058,2020-008AG,2026-05-03T05:40:03.350496,13.10341701,0.00030003,87.8887,45.2205,76.6403,283.5059,0,U,45161,999,30253,-0.0074697632,-2.593e-05,0.0,Active Satellites
ONEWEB-0059,2020-008AH,2026-05-03T05:35:03.126048,13.10374507,0.00020813,87.885,45.2241,77.204,282.932,0,U,45162,999,30243,0.0019962294,7.1e-06,0.0,Active Satellites
ONEWEB-0062,2020-008AJ,2026-05-03T00:41:21.105600,13.10698843,0.00021354,87.8855,45.25,81.9837,278.1533,0,U,45163,999,30227,0.087567543,0.00030828,0.0,Active Satellites
ONEWEB-0065,2020-008AK,2026-05-03T05:06:07.749216,13.10376579,0.00018159,87.8862,45.2208,90.1189,270.0147,0,U,45164,999,30199,0.00013882717,6.1e-07,0.0,Active Satellites
STARLINK-1143,2020-012B,2026-05-03T08:00:01.000224,15.7738198,0.00020723,53.0393,59.7603,31.5114,67.1921,0,U,45179,999,593,0.00090797141,0.00155157,0.0,Active Satellites
STARLINK-1202,2020-012F,2026-05-03T05:09:34.086240,15.31850185,0.00029815,53.1538,145.8566,48.2441,311.8815,0,U,45183,999,34330,0.00156307,0.00048689,0.0,Active Satellites
STARLINK-1216,2020-012H,2026-05-03T07:57:10.162368,15.32191054,0.00029402,53.1563,145.244,48.1965,311.9287,0,U,45185,999,34326,0.0016706945,0.00052655,0.0,Active Satellites
STARLINK-1225,2020-012K,2026-05-03T07:53:32.144928,15.32173299,0.00025664,53.157,145.7036,48.6886,311.4336,0,U,45187,999,34330,0.0017240861,0.0005433,0.0,Active Satellites
STARLINK-1230,2020-012M,2026-05-03T04:59:22.724160,15.32102528,0.00027977,53.1547,146.3247,49.08,311.0443,0,U,45189,999,34051,0.0016192311,0.00050867,0.0,Active Satellites
STARLINK-1234,2020-012N,2026-05-03T01:39:16.452288,15.6985897,0.00086651,53.0416,57.7451,102.1729,258.0258,0,U,45190,999,34440,0.00054426963,0.00066419,0.0,Active Satellites
STARLINK-1269,2020-012V,2026-05-03T04:53:21.663744,15.32181004,0.00027677,53.1553,146.1923,37.646,322.4735,0,U,45197,999,34326,0.0017294521,0.00054515,0.0,Active Satellites
