ONEWEB-0035             
1 45143U 20008N   26123.18261047 -.00000294  00000+0 -87253-3 0  9994
2 45143  87.8850  45.2305 0001824  75.3701 284.7629 13.10882641302043
ONEWEB-0036             
1 45144U 20008P   26123.20838946 -.00000214  00000+0 -65543-3 0  9996
2 45144  87.8875  45.2177 0001952  85.5082 274.6268 13.09823273302473
ONEWEB-0038             
1 45145U 20008Q   26123.23007131 -.00000501  00000+0 -14495-2 0  9992
2 45145  87.8940  30.0105 0003320  59.8625 300.2832 13.11418589304432
ONEWEB-0039             
1 45146U 20008R   26123.23431888  .00000701  00000+0  19720-2 0  9999
2 45146  87.8857  45.2122 0002250  87.2097 272.9288 13.10372127302272
ONEWEB-0040             
1 45147U 20008S   26123.22767901  .00000668  00000+0  18761-2 0  9993
2 45147  87.8854  45.2258 0001938  76.6994 283.4350 13.10374215301973
ONEWEB-0043             
1 45149U 20008U   26123.22933535  .00000790  00000+0  22276-2 0  9995
2 45149  87.8857  45.2115 0002333  89.1584 270.9811 13.10374043302292
ONEWEB-0044             
1 45150U 20008V   26123.18119009 -.00000247  00000+0 -74339-3 0  9991
2 45150  87.8859  45.2191 0002060  81.0750 279.0610 13.10371207302581
ONEWEB-0045             
1 45151U 20008W   26123.22484519 -.00000425  00000+0 -12350-2 0  9990
2 45151  87.8933  29.9961 0001912  79.5162 280.6181 13.11417869304515
ONEWEB-0047             
1 45152U 20008X   26123.25090779  .00000006  00000+0 -19205-4 0  9997
2 45152  87.8857  45.2054 0001923  73.8558 286.2781 13.10370527302315
ONEWEB-0048             
1 45153U 20008Y   26123.24593161  .00000348  00000+0  96102-3 0  9998
2 45153  87.8850  45.2305 0001898  76.5141 283.6198 13.10369872301927
ONEWEB-0049             
1 45154U 20008Z   26123.24911475  .00000172  00000+0  45672-3 0  9992
2 45154  87.8853  45.2184 0001715  92.0735 268.0589 13.10370219302149
ONEWEB-0051             
1 45155U 20008AA  26123.22314990 -.00000446  00000+0 -12950-2 0  9998
2 45155  87.8924  30.0073 0001852  79.9766 280.1571 13.11414604305190
ONEWEB-0052             
1 45156U 20008AB  26123.19297638 -.00008549  00000+0 -24530-1 0  9992
2 45156  87.8858  45.2143 0001614  92.0763 268.0549 13.10426886302047
ONEWEB-0053             
1 45157U 20008AC  26123.22602040  .00000688  00000+0  19355-2 0  9998
2 45157  87.8856  45.2314 0002152  91.3349 268.8025 13.10375249302027
ONEWEB-0054             
1 45158U 20008AD  26123.18450028 -.00000384  00000+0 -11367-2 0  9991
2 45158  87.8861  45.2187 0001818  80.0057 280.1276 13.10370744302133
ONEWEB-0056             
1 45159U 20008AE  26123.23903422  .00000575  00000+0  16006-2 0  9994
2 45159  87.8858  45.2055 0001610  78.4341 281.6968 13.10840057302291
ONEWEB-0057             
1 45160U 20008AF  26123.24939545  .00000074  00000+0  17520-3 0  9999
2 45160  87.8855  45.2138 0002156  92.2750 267.8625 13.10370209302468
ONEWEB-0058             
1 45161U 20008AG  26123.23614989 -.00002593  00000+0 -74698-2 0  9999
2 45161  87.8887  45.2205 0003000  76.6403 283.5059 13.10341701302538
ONEWEB-0059             
1 45162U 20008AH  26123.23267507  .00000710  00000+0  19962-2 0  9990
2 45162  87.8850  45.2241 0002081  77.2040 282.9320 13.10374507302434
ONEWEB-0062             
1 45163U 20008AJ  26123.02871650  .00030828  00000+0  87568-1 0  9997
2 45163  87.8855  45.2500 0002135  81.9837 278.1533 13.10698843302271
ONEWEB-0065             
1 45164U 20008AK  26123.21258969  .00000061  00000+0  13883-3 0  9998
2 45164  87.8862  45.2208 0001815  90.1189 270.0147 13.10376579301990
STARLINK-1143           
1 45179U 20012B   26123.33334491  .00155157  00000+0  90797-3 0  9993
2 45179  53.0393  59.7603 0002072  31.5114  67.1921 15.77381980  5939
STARLINK-1202           
1 45183U 20012F   26123.21497785  .00048689  00000+0  15631-2 0  9995
2 45183  53.1538 145.8566 0002981  48.2441 311.8815 15.31850185343303
STARLINK-1216           
1 45185U 20012H   26123.33136762  .00052655  00000+0  16707-2 0  9998
2 45185  53.1563 145.2440 0002940  48.1965 311.9287 15.32191054343266
STARLINK-1225           
1 45187U 20012K   26123.32884427  .00054330  00000+0  17241-2 0  9993
2 45187  53.1570 145.7036 0002566  48.6886 311.4336 15.32173299343309
STARLINK-1230           
1 45189U 20012M   26123.20790190  .00050867  00000+0  16192-2 0  9990
2 45189  53.1547 146.3247 0002797  49.0800 311.0443 15.32102528340515
STARLINK-1234           
1 45190U 20012N   26123.06894042  .00066419  00000+0  54427-3 0  9991
2 45190  53.0416  57.7451 0008665 102.1729 258.0258 15.69858970344409
STARLINK-1269           
1 45197U 20012V   26123.20372296  .00054515  00000+0  17295-2 0  9991
2 45197  53.1553 146.1923 0002767  37.6460 322.4735 15.32181004343263
